start=new Date('2023-02-23T00:00:00.000Z').valueOf();
sats=[{"ECCENTRICITY":"0.00014140","RA_OF_ASC_NODE":"135.0276","BSTAR":"0.00093447000000","FILE":"3824148","OBJECT_TYPE":"PAYLOAD","COUNTRY_CODE":"US","APOAPSIS":"548.278","TIME_SYSTEM":"UTC","TLE_LINE2":"2 44713  53.0504 135.0276 0001414 108.6278 251.4864 15.06372103181260","EPOCH":"2023-02-22T11:33:46.401120","PERIAPSIS":"546.320","MEAN_ANOMALY":"251.4864","ELEMENT_SET_NO":"999","MEAN_MOTION_DOT":"0.00013654","SITE":"AFETR","RCS_SIZE":"LARGE","MEAN_MOTION_DDOT":"0.0000000000000","OBJECT_ID":"2019-074A","MEAN_ELEMENT_THEORY":"SGP4","DECAY_DATE":null,"TLE_LINE1":"1 44713U 19074A   23053.48178705  .00013654  00000-0  93447-3 0  9992","ARG_OF_PERICENTER":"108.6278","INCLINATION":"53.0504","PERIOD":"95.594","OBJECT_NAME":"STARLINK-1007","CENTER_NAME":"EARTH","SEMIMAJOR_AXIS":"6925.434","CLASSIFICATION_TYPE":"U","GP_ID":"226417504","MEAN_MOTION":"15.06372103","REF_FRAME":"TEME","LAUNCH_DATE":"2019-11-11","EPHEMERIS_TYPE":"0","NORAD_CAT_ID":"44713","REV_AT_EPOCH":"18126"},{"BSTAR":"0.00110440000000","RA_OF_ASC_NODE":"133.0369","ECCENTRICITY":"0.00007450","APOAPSIS":"547.787","COUNTRY_CODE":"US","OBJECT_TYPE":"PAYLOAD","FILE":"3825529","EPOCH":"2023-02-22T22:12:05.895936","TLE_LINE2":"2 44714  53.0526 133.0369 0000745  90.3679 269.7395 15.06381229181332","TIME_SYSTEM":"UTC","MEAN_MOTION_DOT":"0.00016198","SITE":"AFETR","RCS_SIZE":"LARGE","ELEMENT_SET_NO":"999","MEAN_ANOMALY":"269.7395","PERIAPSIS":"546.755","DECAY_DATE":null,"MEAN_ELEMENT_THEORY":"SGP4","OBJECT_ID":"2019-074B","MEAN_MOTION_DDOT":"0.0000000000000","INCLINATION":"53.0526","ARG_OF_PERICENTER":"90.3679","TLE_LINE1":"1 44714U 19074B   23053.92506824  .00016198  00000-0  11044-2 0  9997","MEAN_MOTION":"15.06381229","GP_ID":"226471284","CLASSIFICATION_TYPE":"U","SEMIMAJOR_AXIS":"6925.406","CENTER_NAME":"EARTH","PERIOD":"95.593","OBJECT_NAME":"STARLINK-1008","REV_AT_EPOCH":"18133","NORAD_CAT_ID":"44714","EPHEMERIS_TYPE":"0","REF_FRAME":"TEME","LAUNCH_DATE":"2019-11-11"},{"FILE":"3825529","COUNTRY_CODE":"US","OBJECT_TYPE":"PAYLOAD","APOAPSIS":"548.135","ECCENTRICITY":"0.00012780","RA_OF_ASC_NODE":"133.0848","BSTAR":"0.00164380000000","PERIAPSIS":"546.365","MEAN_ANOMALY":"256.9432","ELEMENT_SET_NO":"999","RCS_SIZE":"LARGE","SITE":"AFETR","MEAN_MOTION_DOT":"0.00024280","TIME_SYSTEM":"UTC","TLE_LINE2":"2 44715  53.0523 133.0848 0001278 103.1699 256.9432 15.06388075181324","EPOCH":"2023-02-22T21:56:09.206016","TLE_LINE1":"1 44715U 19074C   23053.91399544  .00024280  00000-0  16438-2 0  9999","ARG_OF_PERICENTER":"103.1699","INCLINATION":"53.0523","MEAN_MOTION_DDOT":"0.0000000000000","OBJECT_ID":"2019-074C","MEAN_ELEMENT_THEORY":"SGP4","DECAY_DATE":null,"LAUNCH_DATE":"2019-11-11","REF_FRAME":"TEME","EPHEMERIS_TYPE":"0","REV_AT_EPOCH":"18132","NORAD_CAT_ID":"44715","PERIOD":"95.593","OBJECT_NAME":"STARLINK-1009","CENTER_NAME":"EARTH","SEMIMAJOR_AXIS":"6925.385","GP_ID":"226469758","CLASSIFICATION_TYPE":"U","MEAN_MOTION":"15.06388075"},{"ECCENTRICITY":"0.00008190","BSTAR":"0.00123460000000","RA_OF_ASC_NODE":"133.8969","FILE":"3825529","APOAPSIS":"547.841","OBJECT_TYPE":"PAYLOAD","COUNTRY_CODE":"US","TIME_SYSTEM":"UTC","TLE_LINE2":"2 44716  53.0519 133.8969 0000819  98.9259 261.1823 15.06380496181281","EPOCH":"2023-02-22T17:36:05.004000","PERIAPSIS":"546.706","MEAN_ANOMALY":"261.1823","ELEMENT_SET_NO":"999","MEAN_MOTION_DOT":"0.00018146","SITE":"AFETR","RCS_SIZE":"LARGE","MEAN_MOTION_DDOT":"0.0000000000000","MEAN_ELEMENT_THEORY":"SGP4","OBJECT_ID":"2019-074D","DECAY_DATE":null,"TLE_LINE1":"1 44716U 19074D   23053.73339125  .00018146  00000-0  12346-2 0  9997","ARG_OF_PERICENTER":"98.9259","INCLINATION":"53.0519","CENTER_NAME":"EARTH","PERIOD":"95.593","OBJECT_NAME":"STARLINK-1010","CLASSIFICATION_TYPE":"U","GP_ID":"226470285","SEMIMAJOR_AXIS":"6925.408","MEAN_MOTION":"15.06380496","REF_FRAME":"TEME","LAUNCH_DATE":"2019-11-11","EPHEMERIS_TYPE":"0","NORAD_CAT_ID":"44716","REV_AT_EPOCH":"18128"},{"OBJECT_TYPE":"PAYLOAD","COUNTRY_CODE":"US","APOAPSIS":"548.165","FILE":"3825529","RA_OF_ASC_NODE":"153.6071","BSTAR":"0.00170570000000","ECCENTRICITY":"0.00011780","SITE":"AFETR","MEAN_MOTION_DOT":"0.00025186","RCS_SIZE":"LARGE","ELEMENT_SET_NO":"999","MEAN_ANOMALY":"256.3209","PERIAPSIS":"546.534","EPOCH":"2023-02-22T19:08:57.799680","TLE_LINE2":"2 44717  53.0508 153.6071 0001178 103.7911 256.3209 15.06355615181035","TIME_SYSTEM":"UTC","INCLINATION":"53.0508","ARG_OF_PERICENTER":"103.7911","TLE_LINE1":"1 44717U 19074E   23053.79789120  .00025186  00000-0  17057-2 0  9994","DECAY_DATE":null,"OBJECT_ID":"2019-074E","MEAN_ELEMENT_THEORY":"SGP4","MEAN_MOTION_DDOT":"0.0000000000000","REV_AT_EPOCH":"18103","NORAD_CAT_ID":"44717","EPHEMERIS_TYPE":"0","REF_FRAME":"TEME","LAUNCH_DATE":"2019-11-11","MEAN_MOTION":"15.06355615","SEMIMAJOR_AXIS":"6925.485","GP_ID":"226470535","CLASSIFICATION_TYPE":"U","PERIOD":"95.595","OBJECT_NAME":"STARLINK-1011","CENTER_NAME":"EARTH"},{"RA_OF_ASC_NODE":"134.0286","BSTAR":"0.00155150000000","ECCENTRICITY":"0.00013490","OBJECT_TYPE":"PAYLOAD","COUNTRY_CODE":"US","APOAPSIS":"548.382","FILE":"3825529","EPOCH":"2023-02-22T16:53:34.758528","TLE_LINE2":"2 44718  53.0517 134.0286 0001349  96.0950 264.0193 15.06323749181293","TIME_SYSTEM":"UTC","MEAN_MOTION_DOT":"0.00022856","SITE":"AFETR","RCS_SIZE":"LARGE","ELEMENT_SET_NO":"999","MEAN_ANOMALY":"264.0193","PERIAPSIS":"546.513","DECAY_DATE":null,"OBJECT_ID":"2019-074F","MEAN_ELEMENT_THEORY":"SGP4","MEAN_MOTION_DDOT":"0.0000000000000","INCLINATION":"53.0517","ARG_OF_PERICENTER":"96.0950","TLE_LINE1":"1 44718U 19074F   23053.70387452  .00022856  00000-0  15515-2 0  9996","MEAN_MOTION":"15.06323749","SEMIMAJOR_AXIS":"6925.582","GP_ID":"226470786","CLASSIFICATION_TYPE":"U","OBJECT_NAME":"STARLINK-1012","PERIOD":"95.597","CENTER_NAME":"EARTH","NORAD_CAT_ID":"44718","REV_AT_EPOCH":"18129","EPHEMERIS_TYPE":"0","REF_FRAME":"TEME","LAUNCH_DATE":"2019-11-11"},{"ECCENTRICITY":"0.00015590","RA_OF_ASC_NODE":"133.1055","BSTAR":"0.00185250000000","FILE":"3825529","OBJECT_TYPE":"PAYLOAD","COUNTRY_CODE":"US","APOAPSIS":"548.416","TIME_SYSTEM":"UTC","TLE_LINE2":"2 44719  53.0506 133.1055 0001559  94.7660 265.3507 15.06359928182452","EPOCH":"2023-02-22T21:50:50.896320","PERIAPSIS":"546.257","MEAN_ANOMALY":"265.3507","ELEMENT_SET_NO":"999","RCS_SIZE":"LARGE","SITE":"AFETR","MEAN_MOTION_DOT":"0.00027389","MEAN_MOTION_DDOT":"0.0000000000000","OBJECT_ID":"2019-074G","MEAN_ELEMENT_THEORY":"SGP4","DECAY_DATE":null,"TLE_LINE1":"1 44719U 19074G   23053.91031130  .00027389  00000-0  18525-2 0  9999","ARG_OF_PERICENTER":"94.7660","INCLINATION":"53.0506","OBJECT_NAME":"STARLINK-1013","PERIOD":"95.595","CENTER_NAME":"EARTH","SEMIMAJOR_AXIS":"6925.471","GP_ID":"226470259","CLASSIFICATION_TYPE":"U","MEAN_MOTION":"15.06359928","LAUNCH_DATE":"2019-11-11","REF_FRAME":"TEME","EPHEMERIS_TYPE":"0","NORAD_CAT_ID":"44719","REV_AT_EPOCH":"18245"},{"RCS_SIZE":"LARGE","SITE":"AFETR","MEAN_MOTION_DOT":"-0.00003149","ELEMENT_SET_NO":"999","MEAN_ANOMALY":"268.2468","PERIAPSIS":"546.394","EPOCH":"2023-02-22T22:15:58.806144","TLE_LINE2":"2 44720  53.0511 133.0152 0001266  91.8665 268.2468 15.06381367181331","TIME_SYSTEM":"UTC","OBJECT_TYPE":"PAYLOAD","COUNTRY_CODE":"US","APOAPSIS":"548.147","FILE":"3825529","RA_OF_ASC_NODE":"133.0152","BSTAR":"-0.00019273000000","ECCENTRICITY":"0.00012660","NORAD_CAT_ID":"44720","REV_AT_EPOCH":"18133","EPHEMERIS_TYPE":"0","LAUNCH_DATE":"2019-11-11","REF_FRAME":"TEME","MEAN_MOTION":"15.06381367","SEMIMAJOR_AXIS":"6925.406","CLASSIFICATION_TYPE":"U","GP_ID":"226469785","PERIOD":"95.593","OBJECT_NAME":"STARLINK-1014","CENTER_NAME":"EARTH","INCLINATION":"53.0511","TLE_LINE1":"1 44720U 19074H   23053.92776396 -.00003149  00000-0 -19273-3 0  9994","ARG_OF_PERICENTER":"91.8665","DECAY_DATE":null,"OBJECT_ID":"2019-074H","MEAN_ELEMENT_THEORY":"SGP4","MEAN_MOTION_DDOT":"0.0000000000000"},{"CENTER_NAME":"EARTH","PERIOD":"95.594","OBJECT_NAME":"STARLINK-1015","MEAN_MOTION":"15.06373534","GP_ID":"226470035","CLASSIFICATION_TYPE":"U","SEMIMAJOR_AXIS":"6925.430","LAUNCH_DATE":"2019-11-11","REF_FRAME":"TEME","NORAD_CAT_ID":"44721","REV_AT_EPOCH":"18132","EPHEMERIS_TYPE":"0","MEAN_ELEMENT_THEORY":"SGP4","OBJECT_ID":"2019-074J","MEAN_MOTION_DDOT":"0.0000000000000","DECAY_DATE":null,"ARG_OF_PERICENTER":"97.3557","TLE_LINE1":"1 44721U 19074J   23053.91767765  .00022406  00000-0  15194-2 0  9996","INCLINATION":"53.0521","TIME_SYSTEM":"UTC","EPOCH":"2023-02-22T22:01:27.348960","TLE_LINE2":"2 44721  53.0521 133.0696 0001124  97.3557 262.7559 15.06373534181326","MEAN_ANOMALY":"262.7559","PERIAPSIS":"546.516","RCS_SIZE":"LARGE","SITE":"AFETR","MEAN_MOTION_DOT":"0.00022406","ELEMENT_SET_NO":"999","ECCENTRICITY":"0.00011240","BSTAR":"0.00151940000000","RA_OF_ASC_NODE":"133.0696","FILE":"3825529","APOAPSIS":"548.073","COUNTRY_CODE":"US","OBJECT_TYPE":"PAYLOAD"},{"NORAD_CAT_ID":"44723","REV_AT_EPOCH":"18128","EPHEMERIS_TYPE":"0","LAUNCH_DATE":"2019-11-11","REF_FRAME":"TEME","MEAN_MOTION":"15.06387275","SEMIMAJOR_AXIS":"6925.388","GP_ID":"226471285","CLASSIFICATION_TYPE":"U","OBJECT_NAME":"STARLINK-1017","PERIOD":"95.593","CENTER_NAME":"EARTH","INCLINATION":"53.0545","ARG_OF_PERICENTER":"85.3994","TLE_LINE1":"1 44723U 19074L   23053.60437399 -.00004817  00000-0 -30479-3 0  9993","DECAY_DATE":null,"OBJECT_ID":"2019-074L","MEAN_ELEMENT_THEORY":"SGP4","MEAN_MOTION_DDOT":"0.0000000000000","RCS_SIZE":"LARGE","SITE":"AFETR","MEAN_MOTION_DOT":"-0.00004817","ELEMENT_SET_NO":"999","MEAN_ANOMALY":"274.7146","PERIAPSIS":"546.336","EPOCH":"2023-02-22T14:30:17.912736","TLE_LINE2":"2 44723  53.0545 134.4724 0001323  85.3994 274.7146 15.06387275181281","TIME_SYSTEM":"UTC","OBJECT_TYPE":"PAYLOAD","COUNTRY_CODE":"US","APOAPSIS":"548.169","FILE":"3825529","RA_OF_ASC_NODE":"134.4724","BSTAR":"-0.00030479000000","ECCENTRICITY":"0.00013230"}];
